{"type": "FeatureCollection", "features": [ {"type": "Feature", "properties": {"norad_id": 42987, "name": "SKYSAT-C11", "group": "resource", "lat": -51.14990443371384, "lon": 147.4500651450989, "alt_km": 430.1313225350068, "timestamp": "2025-12-26T07:29:18.117245+00:00", "meta": {"OBJECT_NAME": "SKYSAT-C11", "OBJECT_ID": "2017-068A", "EPOCH": "2025-12-25T22:24:11.990304", "MEAN_MOTION": 15.48016298, "ECCENTRICITY": 0.00011551, "INCLINATION": 97.4151, "RA_OF_ASC_NODE": 137.7566, "ARG_OF_PERICENTER": 96.2263, "MEAN_ANOMALY": 263.9118, "EPHEMERIS_TYPE": 0, "CLASSIFICATION_TYPE": "U", "NORAD_CAT_ID": 42987, "ELEMENT_SET_NO": 999, "REV_AT_EPOCH": 45635, "BSTAR": 0.00044194766, "MEAN_MOTION_DOT": 0.00023051, "MEAN_MOTION_DDOT": 0}, "tle": {"line1": "1 42987U 17068A   25359.93347211  .00023051  00000+0  44195-3 0  9992", "line2": "2 42987  97.4151 137.7566 0001155  96.2263 263.9118 15.48016298456351"}}, "geometry": {"type": "Point", "coordinates": [147.4500651450989, -51.14990443371384]}}, {"type": "Feature", "properties": {"norad_id": 42988, "name": "SKYSAT-C10", "group": "resource", "lat": -10.856401283491143, "lon": 132.63561630203847, "alt_km": 473.43962119087973, "timestamp": "2025-12-26T07:29:18.117255+00:00", "meta": {"OBJECT_NAME": "SKYSAT-C10", "OBJECT_ID": "2017-068B", "EPOCH": "2025-12-24T19:29:00.783168", "MEAN_MOTION": 15.32071049, "ECCENTRICITY": 0.00043105, "INCLINATION": 97.4272, "RA_OF_ASC_NODE": 129.6977, "ARG_OF_PERICENTER": 75.127, "MEAN_ANOMALY": 285.0448, "EPHEMERIS_TYPE": 0, "CLASSIFICATION_TYPE": "U", "NORAD_CAT_ID": 42988, "ELEMENT_SET_NO": 999, "REV_AT_EPOCH": 45564, "BSTAR": 0.00040464637, "MEAN_MOTION_DOT": 0.00012461, "MEAN_MOTION_DDOT": 0}, "tle": {"line1": "1 42988U 17068B   25358.81181462  .00012461  00000+0  40465-3 0  9992", "line2": "2 42988  97.4272 129.6977 0004310  75.1270 285.0448 15.32071049455642"}}, "geometry": {"type": "Point", "coordinates": [132.63561630203847, -10.856401283491143]}}, {"type": "Feature", "properties": {"norad_id": 42989, "name": "SKYSAT-C9", "group": "resource", "lat": 34.30381041802386, "lon": 125.57519719586493, "alt_km": 447.77069391293935, "timestamp": "2025-12-26T07:29:18.117265+00:00", "meta": {"OBJECT_NAME": "SKYSAT-C9", "OBJECT_ID": "2017-068C", "EPOCH": "2025-12-25T21:57:34.809408", "MEAN_MOTION": 15.36381631, "ECCENTRICITY": 0.00102125, "INCLINATION": 97.4194, "RA_OF_ASC_NODE": 130.2756, "ARG_OF_PERICENTER": 45.4149, "MEAN_ANOMALY": 314.7927, "EPHEMERIS_TYPE": 0, "CLASSIFICATION_TYPE": "U", "NORAD_CAT_ID": 42989, "ELEMENT_SET_NO": 999, "REV_AT_EPOCH": 45610, "BSTAR": 0.00039249687, "MEAN_MOTION_DOT": 0.00013877, "MEAN_MOTION_DDOT": 0}, "tle": {"line1": "1 42989U 17068C   25359.91498622  .00013877  00000+0  39250-3 0  9996", "line2": "2 42989  97.4194 130.2756 0010212  45.4149 314.7927 15.36381631456101"}}, "geometry": {"type": "Point", "coordinates": [125.57519719586493, 34.30381041802386]}}, {"type": "Feature", "properties": {"norad_id": 42990, "name": "SKYSAT-C8", "group": "resource", "lat": -31.642811312310076, "lon": -54.237893584442205, "alt_km": 471.95404836603393, "timestamp": "2025-12-26T07:29:18.117275+00:00", "meta": {"OBJECT_NAME": "SKYSAT-C8", "OBJECT_ID": "2017-068D", "EPOCH": "2025-12-25T21:10:08.556672", "MEAN_MOTION": 15.33208945, "ECCENTRICITY": 9.445e-05, "INCLINATION": 97.4287, "RA_OF_ASC_NODE": 129.942, "ARG_OF_PERICENTER": 263.9401, "MEAN_ANOMALY": 96.1733, "EPHEMERIS_TYPE": 0, "CLASSIFICATION_TYPE": "U", "NORAD_CAT_ID": 42990, "ELEMENT_SET_NO": 999, "REV_AT_EPOCH": 45572, "BSTAR": 0.00035523615, "MEAN_MOTION_DOT": 0.00011324, "MEAN_MOTION_DDOT": 0}, "tle": {"line1": "1 42990U 17068D   25359.88204348  .00011324  00000+0  35524-3 0  9999", "line2": "2 42990  97.4287 129.9420 0000944 263.9401  96.1733 15.33208945455724"}}, "geometry": {"type": "Point", "coordinates": [-54.237893584442205, -31.642811312310076]}}, {"type": "Feature", "properties": {"norad_id": 42991, "name": "SKYSAT-C7", "group": "resource", "lat": 37.55391609483661, "lon": 125.6461292312445, "alt_km": 461.1278988484837, "timestamp": "2025-12-26T07:29:18.117285+00:00", "meta": {"OBJECT_NAME": "SKYSAT-C7", "OBJECT_ID": "2017-068E", "EPOCH": "2025-12-25T21:55:18.596352", "MEAN_MOTION": 15.32604229, "ECCENTRICITY": 0.00068158, "INCLINATION": 97.4296, "RA_OF_ASC_NODE": 131.004, "ARG_OF_PERICENTER": 14.8643, "MEAN_ANOMALY": 345.2798, "EPHEMERIS_TYPE": 0, "CLASSIFICATION_TYPE": "U", "NORAD_CAT_ID": 42991, "ELEMENT_SET_NO": 999, "REV_AT_EPOCH": 45579, "BSTAR": 0.00037042321, "MEAN_MOTION_DOT": 0.00011596, "MEAN_MOTION_DDOT": 0}, "tle": {"line1": "1 42991U 17068E   25359.91340968  .00011596  00000+0  37042-3 0  9991", "line2": "2 42991  97.4296 131.0040 0006815  14.8643 345.2798 15.32604229455791"}}, "geometry": {"type": "Point", "coordinates": [125.6461292312445, 37.55391609483661]}}, {"type": "Feature", "properties": {"norad_id": 42992, "name": "SKYSAT-C6", "group": "resource", "lat": 64.97833226917791, "lon": -31.927074204751854, "alt_km": 463.0520400471951, "timestamp": "2025-12-26T07:29:18.117296+00:00", "meta": {"OBJECT_NAME": "SKYSAT-C6", "OBJECT_ID": "2017-068F", "EPOCH": "2025-12-25T20:01:06.090528", "MEAN_MOTION": 15.31757076, "ECCENTRICITY": 0.00047376, "INCLINATION": 97.4326, "RA_OF_ASC_NODE": 131.3522, "ARG_OF_PERICENTER": 46.8398, "MEAN_ANOMALY": 313.3239, "EPHEMERIS_TYPE": 0, "CLASSIFICATION_TYPE": "U", "NORAD_CAT_ID": 42992, "ELEMENT_SET_NO": 999, "REV_AT_EPOCH": 45576, "BSTAR": 0.00037471515, "MEAN_MOTION_DOT": 0.0001142, "MEAN_MOTION_DDOT": 0}, "tle": {"line1": "1 42992U 17068F   25359.83409827  .00011420  00000+0  37472-3 0  9996", "line2": "2 42992  97.4326 131.3522 0004737  46.8398 313.3239 15.31757076455768"}}, "geometry": {"type": "Point", "coordinates": [-31.927074204751854, 64.97833226917791]}}, {"type": "Feature", "properties": {"norad_id": 43111, "name": "CARTOSAT-2F", "group": "resource", "lat": -23.27722821691339, "lon": 60.94614999636612, "alt_km": 514.3802362709239, "timestamp": "2025-12-26T07:29:18.117306+00:00", "meta": {"OBJECT_NAME": "CARTOSAT-2F", "OBJECT_ID": "2018-004A", "EPOCH": "2025-12-25T23:41:16.284192", "MEAN_MOTION": 15.19248825, "ECCENTRICITY": 0.00015608, "INCLINATION": 97.4294, "RA_OF_ASC_NODE": 57.4084, "ARG_OF_PERICENTER": 110.7311, "MEAN_ANOMALY": 249.4091, "EPHEMERIS_TYPE": 0, "CLASSIFICATION_TYPE": "U", "NORAD_CAT_ID": 43111, "ELEMENT_SET_NO": 999, "REV_AT_EPOCH": 44103, "BSTAR": 0.00021970906, "MEAN_MOTION_DOT": 4.563e-05, "MEAN_MOTION_DDOT": 0}, "tle": {"line1": "1 43111U 18004A   25359.98699403  .00004563  00000+0  21971-3 0  9995", "line2": "2 43111  97.4294  57.4084 0001560 110.7311 249.4091 15.19248825441037"}}, "geometry": {"type": "Point", "coordinates": [60.94614999636612, -23.27722821691339]}}, {"type": "Feature", "properties": {"norad_id": 43259, "name": "GAOFEN-1 02", "group": "resource", "lat": 5.3109387513515385, "lon": -121.13878342691885, "alt_km": 641.0008717448245, "timestamp": "2025-12-26T07:29:18.117316+00:00", "meta": {"OBJECT_NAME": "GAOFEN-1 02", "OBJECT_ID": "2018-031A", "EPOCH": "2025-12-25T22:34:04.519776", "MEAN_MOTION": 14.76442891, "ECCENTRICITY": 0.00026714, "INCLINATION": 98.0784, "RA_OF_ASC_NODE": 57.733, "ARG_OF_PERICENTER": 169.0445, "MEAN_ANOMALY": 191.0823, "EPHEMERIS_TYPE": 0, "CLASSIFICATION_TYPE": "U", "NORAD_CAT_ID": 43259, "ELEMENT_SET_NO": 999, "REV_AT_EPOCH": 41713, "BSTAR": 0.00019984058, "MEAN_MOTION_DOT": 1.338e-05, "MEAN_MOTION_DDOT": 0}, "tle": {"line1": "1 43259U 18031A   25359.94033009  .00001338  00000+0  19984-3 0  9996", "line2": "2 43259  98.0784  57.7330 0002671 169.0445 191.0823 14.76442891417137"}}, "geometry": {"type": "Point", "coordinates": [-121.13878342691885, 5.3109387513515385]}}, {"type": "Feature", "properties": {"norad_id": 43260, "name": "GAOFEN-1 03", "group": "resource", "lat": -67.84058056608337, "lon": 78.39034474354814, "alt_km": 646.8316832097353, "timestamp": "2025-12-26T07:29:18.117326+00:00", "meta": {"OBJECT_NAME": "GAOFEN-1 03", "OBJECT_ID": "2018-031B", "EPOCH": "2025-12-25T23:40:09.554016", "MEAN_MOTION": 14.76462999, "ECCENTRICITY": 0.00017605, "INCLINATION": 98.078, "RA_OF_ASC_NODE": 57.6551, "ARG_OF_PERICENTER": 250.8744, "MEAN_ANOMALY": 109.2275, "EPHEMERIS_TYPE": 0, "CLASSIFICATION_TYPE": "U", "NORAD_CAT_ID": 43260, "ELEMENT_SET_NO": 999, "REV_AT_EPOCH": 41713, "BSTAR": 0.00013678649, "MEAN_MOTION_DOT": 9e-06, "MEAN_MOTION_DDOT": 0}, "tle": {"line1": "1 43260U 18031B   25359.98622169  .00000900  00000+0  13679-3 0  9992", "line2": "2 43260  98.0780  57.6551 0001760 250.8744 109.2275 14.76462999417131"}}, "geometry": {"type": "Point", "coordinates": [78.39034474354814, -67.84058056608337]}}, {"type": "Feature", "properties": {"norad_id": 43262, "name": "GAOFEN-1 04", "group": "resource", "lat": 58.58959357899208, "lon": 44.701179359376106, "alt_km": 634.5904928095488, "timestamp": "2025-12-26T07:29:18.117336+00:00", "meta": {"OBJECT_NAME": "GAOFEN-1 04", "OBJECT_ID": "2018-031D", "EPOCH": "2025-12-25T23:05:13.349184", "MEAN_MOTION": 14.76432171, "ECCENTRICITY": 5.151e-05, "INCLINATION": 98.0785, "RA_OF_ASC_NODE": 57.8009, "ARG_OF_PERICENTER": 63.9288, "MEAN_ANOMALY": 296.1975, "EPHEMERIS_TYPE": 0, "CLASSIFICATION_TYPE": "U", "NORAD_CAT_ID": 43262, "ELEMENT_SET_NO": 999, "REV_AT_EPOCH": 41712, "BSTAR": 0.00012021262, "MEAN_MOTION_DOT": 7.84e-06, "MEAN_MOTION_DDOT": 0}, "tle": {"line1": "1 43262U 18031D   25359.96196006  .00000784  00000+0  12021-3 0  9998", "line2": "2 43262  98.0785  57.8009 0000515  63.9288 296.1975 14.76432171417122"}}, "geometry": {"type": "Point", "coordinates": [44.701179359376106, 58.58959357899208]}}]}